NORAD_CAT_ID,OBJECT_NAME,OBJECT_TYPE,EPOCH,MEAN_MOTION,ECCENTRICITY,INCLINATION,RA_OF_ASC_NODE,ARG_OF_PERICENTER,MEAN_ANOMALY,BSTAR,MEAN_MOTION_DOT,MEAN_MOTION_DDOT,TLE_LINE0,TLE_LINE1,TLE_LINE2,SEMIMAJOR_AXIS,PERIOD,APOGEE,PERIGEE,DECAYED
52656.0,STARLINK-4004,PAYLOAD,2024-07-04 13:46:40,15.08836432,0.0001224,53.2164,26.5115,101.569,258.5439,7.9457e-05,9.77e-06,0.0,0 STARLINK-4004,1 52656U 22053A   24186.57408457  .00000977  00000-0  79457-4 0  9996,2 52656  53.2164  26.5115 0001224 101.5690 258.5439 15.08836432118554,6917.891,95.438,540.603,538.91,0.0
52656.0,STARLINK-4004,PAYLOAD,2024-07-04 20:08:13,15.08843312,9.12e-05,53.2164,25.3214,83.9344,276.1752,6.1386e-05,6.89e-06,0.0,0 STARLINK-4004,1 52656U 22053A   24186.83904127  .00000689  00000-0  61386-4 0  9992,2 52656  53.2164  25.3214 0000912  83.9344 276.1752 15.08843312118596,6917.87,95.437,540.366,539.104,0.0
52656.0,STARLINK-4004,PAYLOAD,2024-07-04 23:18:59,15.08843561,9.46e-05,53.2165,24.7271,82.2198,277.8902,7.0508e-05,8.35e-06,0.0,0 STARLINK-4004,1 52656U 22053A   24186.97152126  .00000835  00000-0  70508-4 0  9990,2 52656  53.2165  24.7271 0000946  82.2198 277.8902 15.08843561118613,6917.87,95.437,540.389,539.08,0.0
52656.0,STARLINK-4004,PAYLOAD,2024-07-05 05:40:31,15.08844417,9.12e-05,53.2164,23.5381,81.0837,279.0258,7.144e-05,8.5e-06,0.0,0 STARLINK-4004,1 52656U 22053A   24187.23648059  .00000850  00000-0  71440-4 0  9998,2 52656  53.2164  23.5381 0000912  81.0837 279.0258 15.08844417118654,6917.867,95.437,540.363,539.101,0.0
52656.0,STARLINK-4004,PAYLOAD,2024-07-05 19:59:00,15.08845984,0.0001075,53.2171,20.8668,93.7559,266.3556,0.00011671,1.57e-05,0.0,0 STARLINK-4004,1 52656U 22053A   24187.83264131  .00001570  00000-0  11671-3 0  9998,2 52656  53.2171  20.8668 0001075  93.7559 266.3556 15.08845984118742,6917.862,95.437,540.471,538.983,0.0
52656.0,STARLINK-4004,PAYLOAD,2024-07-06 11:52:52,15.08833253,0.0001125,53.2163,17.8922,74.478,285.6336,3.0674e-05,2e-06,0.0,0 STARLINK-4004,1 52656U 22053A   24188.49504789  .00000200  00000-0  30674-4 0  9991,2 52656  53.2163  17.8922 0001125  74.4780 285.6336 15.08833253118847,6917.901,95.438,540.544,538.988,0.0
52656.0,STARLINK-4004,PAYLOAD,2024-07-06 21:25:10,15.08838559,0.0001158,53.2182,16.1076,75.6938,284.4183,4.2366e-05,3.86e-06,0.0,0 STARLINK-4004,1 52656U 22053A   24188.89248668  .00000386  00000-0  42366-4 0  9992,2 52656  53.2182  16.1076 0001158  75.6938 284.4183 15.08838559118902,6917.885,95.438,540.551,538.949,0.0
52656.0,STARLINK-4004,PAYLOAD,2024-07-07 05:22:06,15.08836638,0.0001131,53.2163,14.619,78.6292,281.4827,-8.2714e-06,-4.19e-06,0.0,0 STARLINK-4004,1 52656U 22053A   24189.22368742 -.00000419  00000-0 -82714-5 0  9997,2 52656  53.2163  14.6190 0001131  78.6292 281.4827 15.08836638118951,6917.891,95.438,540.538,538.973,0.0
52656.0,STARLINK-4004,PAYLOAD,2024-07-07 19:40:34,15.08845726,0.0001105,53.2175,11.9441,79.4678,280.6438,0.00010211,1.338e-05,0.0,0 STARLINK-4004,1 52656U 22053A   24189.81984414  .00001338  00000-0  10211-3 0  9992,2 52656  53.2175  11.9441 0001105  79.4678 280.6438 15.08845726119049,6917.863,95.437,540.492,538.963,0.0
52656.0,STARLINK-4004,PAYLOAD,2024-07-08 05:12:53,15.08844202,0.0001,53.2173,10.1566,76.4756,283.6347,-3.6115e-05,-8.63e-06,0.0,0 STARLINK-4004,1 52656U 22053A   24190.21728337 -.00000863  00000-0 -36115-4 0  9994,2 52656  53.2173  10.1566 0001000  76.4756 283.6347 15.08844202119101,6917.868,95.437,540.424,539.041,0.0
52656.0,STARLINK-4004,PAYLOAD,2024-07-08 19:31:21,15.08844134,0.0001193,53.2178,7.479,98.0974,262.0154,0.00011962,1.617e-05,0.0,0 STARLINK-4004,1 52656U 22053A   24190.81344530  .00001617  00000-0  11962-3 0  9997,2 52656  53.2178   7.4790 0001193  98.0974 262.0154 15.08844134119199,6917.868,95.437,540.558,538.907,0.0
52656.0,STARLINK-4004,PAYLOAD,2024-07-08 21:06:44,15.08848038,0.0001236,53.2182,7.1801,100.5873,259.5258,0.00015209,2.134e-05,0.0,0 STARLINK-4004,1 52656U 22053A   24190.87968315  .00002134  00000-0  15209-3 0  9999,2 52656  53.2182   7.1801 0001236 100.5873 259.5258 15.08848038119204,6917.856,95.437,540.576,538.866,0.0
52656.0,STARLINK-4004,PAYLOAD,2024-07-09 11:25:13,15.08840118,0.000129,53.2166,4.5091,82.9763,277.1376,5.8178e-05,6.38e-06,0.0,0 STARLINK-4004,1 52656U 22053A   24191.47584830  .00000638  00000-0  58178-4 0  9992,2 52656  53.2166   4.5091 0001290  82.9763 277.1376 15.08840118119296,6917.88,95.438,540.637,538.853,0.0
52656.0,STARLINK-4004,PAYLOAD,2024-07-09 17:46:45,15.08841695,0.0001143,53.2175,3.3203,81.4661,278.646,6.3591e-05,7.24e-06,0.0,0 STARLINK-4004,1 52656U 22053A   24191.74080761  .00000724  00000-0  63591-4 0  9997,2 52656  53.2175   3.3203 0001143  81.4661 278.6460 15.08841695119332,6917.875,95.437,540.531,538.949,0.0
52656.0,STARLINK-4004,PAYLOAD,2024-07-10 20:48:18,15.0884512,0.0001242,53.218,358.2655,81.2051,278.9081,7.8966e-05,9.69e-06,0.0,0 STARLINK-4004,1 52656U 22053A   24192.86688628  .00000969  00000-0  78966-4 0  9990,2 52656  53.2180 358.2655 0001242  81.2051 278.9081 15.08845120119500,6917.865,95.437,540.589,538.871,0.0
52656.0,STARLINK-4004,PAYLOAD,2024-07-11 14:17:33,15.08840211,0.0001264,53.2163,354.9929,89.6424,270.4713,0.00012801,1.75e-05,0.0,0 STARLINK-4004,1 52656U 22053A   24193.59552906  .00001750  00000-0  12801-3 0  9994,2 52656  53.2163 354.9929 0001264  89.6424 270.4713 15.08840211119615,6917.88,95.438,540.619,538.87,0.0
52656.0,STARLINK-4004,PAYLOAD,2024-07-12 10:57:34,15.08833307,6.91e-05,53.219,351.1264,89.6224,270.4848,6.754e-05,7.87e-06,0.0,0 STARLINK-4004,1 52656U 22053A   24194.45665357  .00000787  00000-0  67540-4 0  9995,2 52656  53.2190 351.1264 0000691  89.6224 270.4848 15.08833307119748,6917.901,95.438,540.244,539.288,0.0
52656.0,STARLINK-4004,PAYLOAD,2024-07-12 14:08:21,15.08836546,0.0001086,53.2183,350.5312,85.909,274.2027,3.3154e-05,2.4e-06,0.0,0 STARLINK-4004,1 52656U 22053A   24194.58913300  .00000240  00000-0  33154-4 0  9991,2 52656  53.2183 350.5312 0001086  85.9090 274.2027 15.08836546119767,6917.891,95.438,540.507,539.005,0.0
52656.0,STARLINK-4004,PAYLOAD,2024-07-12 17:19:07,15.08840793,0.0001159,53.2179,349.9367,89.5714,270.5411,7.8565e-05,9.63e-06,0.0,0 STARLINK-4004,1 52656U 22053A   24194.72161230  .00000963  00000-0  78565-4 0  9991,2 52656  53.2179 349.9367 0001159  89.5714 270.5411 15.08840793119785,6917.878,95.438,540.545,538.941,0.0
52656.0,STARLINK-4004,PAYLOAD,2024-07-13 13:59:07,15.08844778,0.000112,53.2187,346.0731,84.3891,275.7229,0.00010823,1.435e-05,0.0,0 STARLINK-4004,1 52656U 22053A   24195.58273074  .00001435  00000-0  10823-3 0  9993,2 52656  53.2187 346.0731 0001120  84.3891 275.7229 15.08844778119910,6917.866,95.437,540.506,538.956,0.0
52656.0,STARLINK-4004,PAYLOAD,2024-07-13 17:09:53,15.08850215,0.0001071,53.2178,345.4775,75.7713,284.3398,0.00018714,2.693e-05,0.0,0 STARLINK-4004,1 52656U 22053A   24195.71520693  .00002693  00000-0  18714-3 0  9994,2 52656  53.2178 345.4775 0001071  75.7713 284.3398 15.08850215119931,6917.849,95.437,540.455,538.973,0.0
52656.0,STARLINK-4004,PAYLOAD,2024-07-14 13:49:55,15.08837904,0.0001148,53.2178,341.6126,83.8748,276.2375,6.1868e-05,6.97e-06,0.0,0 STARLINK-4004,1 52656U 22053A   24196.57633354  .00000697  00000-0  61868-4 0  9999,2 52656  53.2178 341.6126 0001148  83.8748 276.2375 15.08837904120063,6917.887,95.438,540.546,538.958,0.0
52656.0,STARLINK-4004,PAYLOAD,2024-07-14 20:11:26,15.08853709,0.000112,53.2184,340.4226,85.4109,274.7011,0.0002266,3.322e-05,0.0,0 STARLINK-4004,1 52656U 22053A   24196.84128281  .00003322  00000-0  22660-3 0  9991,2 52656  53.2184 340.4226 0001120  85.4109 274.7011 15.08853709120103,6917.838,95.437,540.478,538.929,0.0
52656.0,STARLINK-4004,PAYLOAD,2024-07-15 02:33:00,15.08834692,0.0001741,53.2181,339.2337,88.0562,272.063,-2.6374e-05,-7.08e-06,0.0,0 STARLINK-4004,1 52656U 22053A   24197.10625596 -.00000708  00000-0 -26374-4 0  9996,2 52656  53.2181 339.2337 0001741  88.0562 272.0630 15.08834692120142,6917.897,95.438,540.966,538.557,0.0
52656.0,STARLINK-4004,PAYLOAD,2024-07-15 13:40:42,15.08839308,0.000115,53.2185,337.1517,95.7641,264.3482,1.6856e-05,-2e-07,0.0,0 STARLINK-4004,1 52656U 22053A   24197.56993149 -.00000020  00000-0  16856-4 0  9998,2 52656  53.2185 337.1517 0001150  95.7641 264.3482 15.08839308120216,6917.883,95.438,540.543,538.952,0.0
52656.0,STARLINK-4004,PAYLOAD,2024-07-15 16:51:28,15.08844955,0.0001389,53.2183,336.5561,87.4898,272.6253,4.6569e-05,4.53e-06,0.0,0 STARLINK-4004,1 52656U 22053A   24197.70240937  .00000453  00000-0  46569-4 0  9997,2 52656  53.2183 336.5561 0001389  87.4898 272.6253 15.08844955120236,6917.865,95.437,540.691,538.769,0.0
52656.0,STARLINK-4004,PAYLOAD,2024-07-16 08:45:19,15.08840872,0.000121,53.2178,333.5827,94.0374,266.0757,-7.3121e-05,-1.451e-05,0.0,0 STARLINK-4004,1 52656U 22053A   24198.36481194 -.00001451  00000-0 -73121-4 0  9997,2 52656  53.2178 333.5827 0001210  94.0374 266.0757 15.08840872120339,6917.878,95.437,540.58,538.906,0.0
52656.0,STARLINK-4004,PAYLOAD,2024-07-16 13:31:29,15.08842062,0.0001157,53.2175,332.6934,100.8562,259.2561,2.7234e-05,1.46e-06,0.0,0 STARLINK-4004,1 52656U 22053A   24198.56353049  .00000146  00000-0  27234-4 0  9998,2 52656  53.2175 332.6934 0001157 100.8562 259.2561 15.08842062120363,6917.874,95.437,540.539,538.939,0.0
52656.0,STARLINK-4004,PAYLOAD,2024-07-16 16:42:14,15.08856183,0.0001048,53.2181,332.0951,90.1486,269.9626,0.00016373,2.32e-05,0.0,0 STARLINK-4004,1 52656U 22053A   24198.69600313  .00002320  00000-0  16373-3 0  9998,2 52656  53.2181 332.0951 0001048  90.1486 269.9626 15.08856183120389,6917.831,95.437,540.421,538.971,0.0
52656.0,STARLINK-4004,PAYLOAD,2024-07-17 08:36:07,15.08828762,0.0001367,53.2191,329.1209,99.612,260.5027,-1.2237e-05,-4.83e-06,0.0,0 STARLINK-4004,1 52656U 22053A   24199.35842223 -.00000483  00000-0 -12237-4 0  9996,2 52656  53.2191 329.1209 0001367  99.6120 260.5027 15.08828762120481,6917.915,95.438,540.725,538.834,0.0
